NORAD_CAT_ID,OBJECT_NAME,OBJECT_TYPE,EPOCH,MEAN_MOTION,ECCENTRICITY,INCLINATION,RA_OF_ASC_NODE,ARG_OF_PERICENTER,MEAN_ANOMALY,BSTAR,MEAN_MOTION_DOT,MEAN_MOTION_DDOT,TLE_LINE0,TLE_LINE1,TLE_LINE2,SEMIMAJOR_AXIS,PERIOD,APOGEE,PERIGEE,DECAYED
54067.0,STARLINK-5174,PAYLOAD,2023-07-16 03:55:59,15.08827413,0.0002059,53.2172,7.2885,94.5766,265.5461,-0.00016104,-2.849e-05,0.0,0 STARLINK-5174,1 54067U 22136S   23197.16387909 -.00002849  00000-0 -16104-3 0  9991,2 54067  53.2172   7.2885 0002059  94.5766 265.5461 15.08827413 41268,6917.919,95.438,541.208,538.359,0.0
54067.0,STARLINK-5174,PAYLOAD,2023-07-16 18:14:26,15.08839993,0.0001024,53.2175,4.6115,89.8215,270.2894,0.00016153,2.284e-05,0.0,0 STARLINK-5174,1 54067U 22136S   23197.76003376  .00002284  00000-0  16153-3 0  9995,2 54067  53.2175   4.6115 0001024  89.8215 270.2894 15.08839993 41354,6917.88,95.438,540.454,539.037,0.0
54067.0,STARLINK-5174,PAYLOAD,2023-07-17 21:16:00,15.08853432,8.58e-05,53.218,359.5561,82.7354,277.3736,0.00078216,0.00012187,0.0,0 STARLINK-5174,1 54067U 22136S   23198.88611260  .00012187  00000-0  78216-3 0  9997,2 54067  53.2180 359.5561 0000858  82.7354 277.3736 15.08853432 41523,6917.839,95.437,540.298,539.111,0.0
54067.0,STARLINK-5174,PAYLOAD,2023-07-18 14:45:14,15.0885415,0.000124,53.2179,356.285,88.0941,272.0193,0.00058674,9.066e-05,0.0,0 STARLINK-5174,1 54067U 22136S   23199.61475199  .00009066  00000-0  58674-3 0  9996,2 54067  53.2179 356.2850 0001240  88.0941 272.0193 15.08854150 41632,6917.837,95.437,540.56,538.844,0.0
54067.0,STARLINK-5174,PAYLOAD,2023-07-19 19:22:11,15.08826671,0.0001125,53.2177,350.933,96.0617,264.0503,0.00050026,7.68e-05,0.0,0 STARLINK-5174,1 54067U 22136S   23200.80708122  .00007680  00000-0  50026-3 0  9998,2 54067  53.2177 350.9330 0001125  96.0617 264.0503 15.08826671 41818,6917.921,95.438,540.564,539.008,0.0
54067.0,STARLINK-5174,PAYLOAD,2023-07-20 16:02:12,15.0885469,0.0001051,53.2174,347.0669,89.8812,270.23,0.0012091,0.00019015,0.0,0 STARLINK-5174,1 54067U 22136S   23201.66820249  .00019015  00000-0  12091-2 0  9992,2 54067  53.2174 347.0669 0001051  89.8812 270.2300 15.08854690 41942,6917.835,95.437,540.428,538.973,0.0
54067.0,STARLINK-5174,PAYLOAD,2023-07-24 09:03:48,15.08842039,0.0001284,53.2163,330.4182,92.4857,267.6282,0.00020206,2.93e-05,0.0,0 STARLINK-5174,1 54067U 22136S   23205.37764238  .00002930  00000-0  20206-3 0  9995,2 54067  53.2163 330.4182 0001284  92.4857 267.6282 15.08842039 42026,6917.874,95.437,540.627,538.851,0.0
54067.0,STARLINK-5174,PAYLOAD,2023-07-25 12:05:21,15.08836165,0.0001292,53.2159,325.3588,117.0338,243.0786,4.2655e-05,3.91e-06,0.0,0 STARLINK-5174,1 54067U 22136S   23206.50372493  .00000391  00000-0  42655-4 0  9991,2 54067  53.2159 325.3588 0001292 117.0338 243.0786 15.08836165 42199,6917.892,95.438,540.651,538.863,0.0
54067.0,STARLINK-5174,PAYLOAD,2023-07-26 10:20:44,15.08864539,0.0001135,53.2169,321.1959,117.2874,242.8234,-0.00052219,-8.594e-05,0.0,0 STARLINK-5174,1 54067U 22136S   23207.43107114 -.00008594  00000-0 -52219-3 0  9991,2 54067  53.2169 321.1959 0001135 117.2874 242.8234 15.08864539 42336,6917.805,95.436,540.456,538.885,0.0
54067.0,STARLINK-5174,PAYLOAD,2023-07-26 16:42:17,15.08854584,0.0001114,53.2172,320.0071,100.6803,259.4314,0.00032721,4.926e-05,0.0,0 STARLINK-5174,1 54067U 22136S   23207.69603840  .00004926  00000-0  32721-3 0  9995,2 54067  53.2172 320.0071 0001114 100.6803 259.4314 15.08854584 42857,6917.836,95.437,540.471,538.93,0.0
54067.0,STARLINK-5174,PAYLOAD,2023-07-27 00:39:14,15.08841273,0.0001864,53.2166,318.5283,64.9035,295.2151,0.00016457,2.332e-05,0.0,0 STARLINK-5174,1 54067U 22136S   23208.02724637  .00002332  00000-0  16457-3 0  9998,2 54067  53.2166 318.5283 0001864  64.9035 295.2151 15.08841273 42902,6917.876,95.437,541.031,538.452,0.0
54067.0,STARLINK-5174,PAYLOAD,2023-07-27 08:36:09,15.08839176,0.0001388,53.2172,317.0348,83.5388,276.5762,7.1199e-05,8.45e-06,0.0,0 STARLINK-5174,1 54067U 22136S   23208.35844738  .00000845  00000-0  71199-4 0  9991,2 54067  53.2172 317.0348 0001388  83.5388 276.5762 15.08839176 42475,6917.883,95.438,540.708,538.788,0.0
54067.0,STARLINK-5174,PAYLOAD,2023-07-27 19:43:51,15.08843783,0.0001482,53.2158,314.9516,90.7802,269.336,0.00012639,1.724e-05,0.0,0 STARLINK-5174,1 54067U 22136S   23208.82212318  .00001724  00000-0  12639-3 0  9996,2 54067  53.2158 314.9516 0001482  90.7802 269.3360 15.08843783 42549,6917.869,95.437,540.759,538.709,0.0
54067.0,STARLINK-5174,PAYLOAD,2023-07-28 17:59:15,15.08842087,0.0001055,53.2171,310.7914,74.9327,285.1781,4.8553e-05,4.85e-06,0.0,0 STARLINK-5174,1 54067U 22136S   23209.74948500  .00000485  00000-0  48553-4 0  9995,2 54067  53.2171 310.7914 0001055  74.9327 285.1781 15.08842087 43160,6917.874,95.437,540.469,539.009,0.0
54067.0,STARLINK-5174,PAYLOAD,2023-07-29 09:53:07,15.08840804,0.000143,53.2172,307.8164,81.0176,279.0978,0.00017384,2.48e-05,0.0,0 STARLINK-5174,1 54067U 22136S   23210.41189405  .00002480  00000-0  17384-3 0  9996,2 54067  53.2172 307.8164 0001430  81.0176 279.0978 15.08840804 43269,6917.878,95.438,540.732,538.754,0.0
54067.0,STARLINK-5174,PAYLOAD,2023-07-29 17:50:02,15.08853272,9.86e-05,53.2173,306.3296,72.8305,287.2795,0.00023711,3.489e-05,0.0,0 STARLINK-5174,1 54067U 22136S   23210.74308014  .00003489  00000-0  23711-3 0  9992,2 54067  53.2173 306.3296 0000986  72.8305 287.2795 15.08853272 43314,6917.84,95.437,540.387,539.023,0.0
54067.0,STARLINK-5174,PAYLOAD,2023-07-30 09:43:54,15.08835716,0.0001063,53.2186,303.3593,52.1751,307.9337,7.3847e-05,8.88e-06,0.0,0 STARLINK-5174,1 54067U 22136S   23211.40549296  .00000888  00000-0  73847-4 0  9991,2 54067  53.2186 303.3593 0001063  52.1751 307.9337 15.08835716 43414,6917.893,95.438,540.494,539.023,0.0
54067.0,STARLINK-5174,PAYLOAD,2023-07-30 16:05:26,15.08845036,7.64e-05,53.2177,302.1671,129.1154,230.9906,0.00029586,4.425e-05,0.0,0 STARLINK-5174,1 54067U 22136S   23211.67044707  .00004425  00000-0  29586-3 0  9998,2 54067  53.2177 302.1671 0000764 129.1154 230.9906 15.08845036 43454,6917.865,95.437,540.259,539.201,0.0
54067.0,STARLINK-5174,PAYLOAD,2023-08-01 15:47:00,15.0883955,0.0001171,53.2173,293.2462,100.5011,259.6113,2.614e-05,1.28e-06,0.0,0 STARLINK-5174,1 54067U 22136S   23213.65764842  .00000128  00000-0  26140-4 0  9997,2 54067  53.2173 293.2462 0001171 100.5011 259.6113 15.08839550 43751,6917.882,95.438,540.557,538.937,0.0
54067.0,STARLINK-5174,PAYLOAD,2023-08-03 10:42:25,15.08847461,0.0001186,53.2161,285.2169,89.3402,270.7726,0.00030655,4.595e-05,0.0,0 STARLINK-5174,1 54067U 22136S   23215.44612987  .00004595  00000-0  30655-3 0  9995,2 54067  53.2161 285.2169 0001186  89.3402 270.7726 15.08847461 44022,6917.858,95.437,540.543,538.902,0.0
54067.0,STARLINK-5174,PAYLOAD,2023-08-04 10:33:13,15.08837893,0.0001069,53.2155,280.7565,87.9877,272.1237,3.2221e-05,2.25e-06,0.0,0 STARLINK-5174,1 54067U 22136S   23216.43973434  .00000225  00000-0  32221-4 0  9990,2 54067  53.2155 280.7565 0001069  87.9877 272.1237 15.08837893 44172,6917.887,95.438,540.491,539.012,0.0
54067.0,STARLINK-5174,PAYLOAD,2023-08-05 10:23:59,15.08849524,0.000117,53.215,276.2961,78.5989,281.5135,0.00030338,4.545e-05,0.0,0 STARLINK-5174,1 54067U 22136S   23217.43333320  .00004545  00000-0  30338-3 0  9990,2 54067  53.2150 276.2961 0001170  78.5989 281.5135 15.08849524 44322,6917.851,95.437,540.526,538.907,0.0
54067.0,STARLINK-5174,PAYLOAD,2023-08-06 03:53:14,15.08843845,0.0001271,53.2147,273.0253,91.9721,268.1417,0.00023092,3.389e-05,0.0,0 STARLINK-5174,1 54067U 22136S   23218.16197445  .00003389  00000-0  23092-3 0  9991,2 54067  53.2147 273.0253 0001271  91.9721 268.1417 15.08843845 44438,6917.869,95.437,540.613,538.854,0.0
54067.0,STARLINK-5174,PAYLOAD,2023-08-07 10:05:34,15.08841147,0.0001181,53.2166,267.3721,109.4534,250.6586,-1.696e-05,-5.58e-06,0.0,0 STARLINK-5174,1 54067U 22136S   23219.42053715 -.00000558  00000-0 -16960-4 0  9996,2 54067  53.2166 267.3721 0001181 109.4534 250.6586 15.08841147 44629,6917.877,95.437,540.559,538.925,0.0
54067.0,STARLINK-5174,PAYLOAD,2023-08-09 03:25:36,15.08834542,9.98e-05,53.215,259.6433,98.4777,261.6328,5.6774e-05,6.16e-06,0.0,0 STARLINK-5174,1 54067U 22136S   23221.14278325  .00000616  00000-0  56774-4 0  9994,2 54067  53.2150 259.6433 0000998  98.4777 261.6328 15.08834542 44882,6917.897,95.438,540.452,539.072,0.0
54067.0,STARLINK-5174,PAYLOAD,2023-08-10 03:16:24,15.08821565,0.0001015,53.2157,255.1829,103.2199,256.8906,0.00026036,3.856e-05,0.0,0 STARLINK-5174,1 54067U 22136S   23222.13639037  .00003856  00000-0  26036-3 0  9991,2 54067  53.2157 255.1829 0001015 103.2199 256.8906 15.08821565 45030,6917.937,95.439,540.504,539.1,0.0
54067.0,STARLINK-5174,PAYLOAD,2023-08-10 09:37:55,15.08840053,0.0001076,53.2159,253.9936,97.87,262.2415,3.2495e-05,2.29e-06,0.0,0 STARLINK-5174,1 54067U 22136S   23222.40134208  .00000229  00000-0  32495-4 0  9999,2 54067  53.2159 253.9936 0001076  97.8700 262.2415 15.08840053 45073,6917.88,95.438,540.49,539.001,0.0
54067.0,STARLINK-5174,PAYLOAD,2023-08-11 14:14:52,15.08842804,0.0001033,53.2154,248.6396,97.3798,262.7312,0.00010018,1.307e-05,0.0,0 STARLINK-5174,1 54067U 22136S   23223.59365943  .00001307  00000-0  10018-3 0  9996,2 54067  53.2154 248.6396 0001033  97.3798 262.7312 15.08842804 45251,6917.872,95.437,540.451,539.022,0.0
54067.0,STARLINK-5174,PAYLOAD,2023-08-12 01:22:34,15.08831782,8.88e-05,53.2155,246.5573,85.8229,274.2864,0.00010298,1.351e-05,0.0,0 STARLINK-5174,1 54067U 22136S   23224.05734693  .00001351  00000-0  10298-3 0  9999,2 54067  53.2155 246.5573 0000888  85.8229 274.2864 15.08831782 45325,6917.906,95.438,540.385,539.156,0.0
54067.0,STARLINK-5174,PAYLOAD,2023-08-12 10:54:53,15.08841593,0.0001104,53.2154,244.7734,84.5585,275.5533,6.1115e-05,6.85e-06,0.0,0 STARLINK-5174,1 54067U 22136S   23224.45478284  .00000685  00000-0  61115-4 0  9998,2 54067  53.2154 244.7734 0001104  84.5585 275.5533 15.08841593 45380,6917.876,95.437,540.504,538.977,0.0
